{"type": "FeatureCollection", "features": [ {"type": "Feature", "properties": {"norad_id": 39620, "name": "COSMOS 2492 (754)", "group": "gnss", "lat": 42.577618788415904, "lon": -14.702671717206767, "alt_km": 19129.007741464007, "timestamp": "2025-12-07T22:37:43.321531+00:00", "meta": {"OBJECT_NAME": "COSMOS 2492 (754)", "OBJECT_ID": "2014-012A", "EPOCH": "2025-12-06T22:36:05.505696", "MEAN_MOTION": 2.13103091, "ECCENTRICITY": 0.00141965, "INCLINATION": 65.4111, "RA_OF_ASC_NODE": 320.4673, "ARG_OF_PERICENTER": 311.6327, "MEAN_ANOMALY": 48.2397, "EPHEMERIS_TYPE": 0, "CLASSIFICATION_TYPE": "U", "NORAD_CAT_ID": 39620, "ELEMENT_SET_NO": 999, "REV_AT_EPOCH": 9114, "BSTAR": 0, "MEAN_MOTION_DOT": -4.9e-07, "MEAN_MOTION_DDOT": 0}, "tle": {"line1": "1 39620U 14012A   25340.94173039 -.00000049  00000+0  00000+0 0  9990", "line2": "2 39620  65.4111 320.4673 0014196 311.6327  48.2397  2.13103091 91147"}}, "geometry": {"type": "Point", "coordinates": [-14.702671717206767, 42.577618788415904]}}, {"type": "Feature", "properties": {"norad_id": 39635, "name": "IRNSS-1B", "group": "gnss", "lat": -20.971774038664098, "lon": 107.80055492793531, "alt_km": 35734.02415570198, "timestamp": "2025-12-07T22:37:43.321545+00:00", "meta": {"OBJECT_NAME": "IRNSS-1B", "OBJECT_ID": "2014-017A", "EPOCH": "2025-12-06T19:04:03.146304", "MEAN_MOTION": 1.00276623, "ECCENTRICITY": 0.001765, "INCLINATION": 28.835, "RA_OF_ASC_NODE": 243.6935, "ARG_OF_PERICENTER": 183.3947, "MEAN_ANOMALY": 349.8402, "EPHEMERIS_TYPE": 0, "CLASSIFICATION_TYPE": "U", "NORAD_CAT_ID": 39635, "ELEMENT_SET_NO": 999, "REV_AT_EPOCH": 4286, "BSTAR": 0, "MEAN_MOTION_DOT": 1.22e-06, "MEAN_MOTION_DDOT": 0}, "tle": {"line1": "1 39635U 14017A   25340.79448086  .00000122  00000+0  00000+0 0  9992", "line2": "2 39635  28.8350 243.6935 0017650 183.3947 349.8402  1.00276623 42867"}}, "geometry": {"type": "Point", "coordinates": [107.80055492793531, -20.971774038664098]}}, {"type": "Feature", "properties": {"norad_id": 39727, "name": "LUCH 5V (SDCM/PRN 141)", "group": "gnss", "lat": 4.587053096709498, "lon": 151.0859650439613, "alt_km": 35796.474868637546, "timestamp": "2025-12-07T22:37:43.321557+00:00", "meta": {"OBJECT_NAME": "LUCH 5V (SDCM/PRN 141)", "OBJECT_ID": "2014-023A", "EPOCH": "2025-12-07T07:14:14.231904", "MEAN_MOTION": 1.00270615, "ECCENTRICITY": 0.00045947, "INCLINATION": 4.6554, "RA_OF_ASC_NODE": 71.585, "ARG_OF_PERICENTER": 202.6825, "MEAN_ANOMALY": 5.396, "EPHEMERIS_TYPE": 0, "CLASSIFICATION_TYPE": "U", "NORAD_CAT_ID": 39727, "ELEMENT_SET_NO": 999, "REV_AT_EPOCH": 4243, "BSTAR": 0, "MEAN_MOTION_DOT": -2.66e-06, "MEAN_MOTION_DDOT": 0}, "tle": {"line1": "1 39727U 14023A   25341.30155361 -.00000266  00000+0  00000+0 0  9990", "line2": "2 39727   4.6554  71.5850 0004594 202.6825   5.3960  1.00270615 42435"}}, "geometry": {"type": "Point", "coordinates": [151.0859650439613, 4.587053096709498]}}, {"type": "Feature", "properties": {"norad_id": 39741, "name": "GPS BIIF-6  (PRN 06)", "group": "gnss", "lat": -37.12151961233023, "lon": -51.02101301104441, "alt_km": 20083.5795242402, "timestamp": "2025-12-07T22:37:43.321569+00:00", "meta": {"OBJECT_NAME": "GPS BIIF-6  (PRN 06)", "OBJECT_ID": "2014-026A", "EPOCH": "2025-12-07T00:13:30.638496", "MEAN_MOTION": 2.00561616, "ECCENTRICITY": 0.00390271, "INCLINATION": 56.5858, "RA_OF_ASC_NODE": 338.9993, "ARG_OF_PERICENTER": 318.3547, "MEAN_ANOMALY": 41.3608, "EPHEMERIS_TYPE": 0, "CLASSIFICATION_TYPE": "U", "NORAD_CAT_ID": 39741, "ELEMENT_SET_NO": 999, "REV_AT_EPOCH": 8468, "BSTAR": 0, "MEAN_MOTION_DOT": -8e-07, "MEAN_MOTION_DDOT": 0}, "tle": {"line1": "1 39741U 14026A   25341.00938239 -.00000080  00000+0  00000+0 0  9993", "line2": "2 39741  56.5858 338.9993 0039027 318.3547  41.3608  2.00561616 84684"}}, "geometry": {"type": "Point", "coordinates": [-51.02101301104441, -37.12151961233023]}}, {"type": "Feature", "properties": {"norad_id": 40001, "name": "COSMOS 2500 (755)", "group": "gnss", "lat": -64.67856776882815, "lon": -115.85857665763882, "alt_km": 19124.752455890644, "timestamp": "2025-12-07T22:37:43.321581+00:00", "meta": {"OBJECT_NAME": "COSMOS 2500 (755)", "OBJECT_ID": "2014-032A", "EPOCH": "2025-12-07T02:44:10.438080", "MEAN_MOTION": 2.13105901, "ECCENTRICITY": 0.00081625, "INCLINATION": 65.3466, "RA_OF_ASC_NODE": 320.2241, "ARG_OF_PERICENTER": 219.2555, "MEAN_ANOMALY": 140.6795, "EPHEMERIS_TYPE": 0, "CLASSIFICATION_TYPE": "U", "NORAD_CAT_ID": 40001, "ELEMENT_SET_NO": 999, "REV_AT_EPOCH": 8936, "BSTAR": 0, "MEAN_MOTION_DOT": -4.9e-07, "MEAN_MOTION_DDOT": 0}, "tle": {"line1": "1 40001U 14032A   25341.11400970 -.00000049  00000+0  00000+0 0  9994", "line2": "2 40001  65.3466 320.2241 0008162 219.2555 140.6795  2.13105901 89367"}}, "geometry": {"type": "Point", "coordinates": [-115.85857665763882, -64.67856776882815]}}, {"type": "Feature", "properties": {"norad_id": 40105, "name": "GPS BIIF-7  (PRN 09)", "group": "gnss", "lat": -51.065323940566145, "lon": -24.713170059223245, "alt_km": 20244.73056114706, "timestamp": "2025-12-07T22:37:43.321592+00:00", "meta": {"OBJECT_NAME": "GPS BIIF-7  (PRN 09)", "OBJECT_ID": "2014-045A", "EPOCH": "2025-12-05T14:26:16.975968", "MEAN_MOTION": 2.00571979, "ECCENTRICITY": 0.00328896, "INCLINATION": 55.2248, "RA_OF_ASC_NODE": 96.1837, "ARG_OF_PERICENTER": 119.6741, "MEAN_ANOMALY": 240.6258, "EPHEMERIS_TYPE": 0, "CLASSIFICATION_TYPE": "U", "NORAD_CAT_ID": 40105, "ELEMENT_SET_NO": 999, "REV_AT_EPOCH": 8219, "BSTAR": 0, "MEAN_MOTION_DOT": -1.2e-07, "MEAN_MOTION_DDOT": 0}, "tle": {"line1": "1 40105U 14045A   25339.60158537 -.00000012  00000+0  00000+0 0  9993", "line2": "2 40105  55.2248  96.1837 0032889 119.6741 240.6258  2.00571979 82198"}}, "geometry": {"type": "Point", "coordinates": [-24.713170059223245, -51.065323940566145]}}, {"type": "Feature", "properties": {"norad_id": 40128, "name": "GSAT0201 (GALILEO 5)", "group": "gnss", "lat": -44.879079809695995, "lon": -138.35276065616947, "alt_km": 23208.494280615567, "timestamp": "2025-12-07T22:37:43.321604+00:00", "meta": {"OBJECT_NAME": "GSAT0201 (GALILEO 5)", "OBJECT_ID": "2014-050A", "EPOCH": "2025-12-06T23:58:24.264480", "MEAN_MOTION": 1.8551948, "ECCENTRICITY": 0.16473853, "INCLINATION": 49.0835, "RA_OF_ASC_NODE": 281.2976, "ARG_OF_PERICENTER": 172.0659, "MEAN_ANOMALY": 190.9433, "EPHEMERIS_TYPE": 0, "CLASSIFICATION_TYPE": "U", "NORAD_CAT_ID": 40128, "ELEMENT_SET_NO": 999, "REV_AT_EPOCH": 7475, "BSTAR": 0, "MEAN_MOTION_DOT": -5.7e-07, "MEAN_MOTION_DDOT": 0}, "tle": {"line1": "1 40128U 14050A   25340.99889195 -.00000057  00000+0  00000+0 0  9998", "line2": "2 40128  49.0835 281.2976 1647385 172.0659 190.9433  1.85519480 74758"}}, "geometry": {"type": "Point", "coordinates": [-138.35276065616947, -44.879079809695995]}}, {"type": "Feature", "properties": {"norad_id": 40129, "name": "GSAT0202 (GALILEO 6)", "group": "gnss", "lat": 48.66522219623662, "lon": 0.09225110218937375, "alt_km": 20793.478812362424, "timestamp": "2025-12-07T22:37:43.321615+00:00", "meta": {"OBJECT_NAME": "GSAT0202 (GALILEO 6)", "OBJECT_ID": "2014-050B", "EPOCH": "2025-12-06T04:15:08.981856", "MEAN_MOTION": 1.85520222, "ECCENTRICITY": 0.16479377, "INCLINATION": 49.1003, "RA_OF_ASC_NODE": 280.4147, "ARG_OF_PERICENTER": 172.7832, "MEAN_ANOMALY": 189.9608, "EPHEMERIS_TYPE": 0, "CLASSIFICATION_TYPE": "U", "NORAD_CAT_ID": 40129, "ELEMENT_SET_NO": 999, "REV_AT_EPOCH": 7690, "BSTAR": 0, "MEAN_MOTION_DOT": -5.4e-07, "MEAN_MOTION_DDOT": 0}, "tle": {"line1": "1 40129U 14050B   25340.17718729 -.00000054  00000+0  00000+0 0  9990", "line2": "2 40129  49.1003 280.4147 1647937 172.7832 189.9608  1.85520222 76908"}}, "geometry": {"type": "Point", "coordinates": [0.09225110218937375, 48.66522219623662]}}, {"type": "Feature", "properties": {"norad_id": 40269, "name": "IRNSS-1C", "group": "gnss", "lat": 4.400773943344145, "lon": 139.3032855612498, "alt_km": 35732.375947361994, "timestamp": "2025-12-07T22:37:43.321630+00:00", "meta": {"OBJECT_NAME": "IRNSS-1C", "OBJECT_ID": "2014-061A", "EPOCH": "2025-12-06T20:54:30.066048", "MEAN_MOTION": 1.0026867, "ECCENTRICITY": 0.00178144, "INCLINATION": 6.026, "RA_OF_ASC_NODE": 92.7398, "ARG_OF_PERICENTER": 2.5775, "MEAN_ANOMALY": 17.1506, "EPHEMERIS_TYPE": 0, "CLASSIFICATION_TYPE": "U", "NORAD_CAT_ID": 40269, "ELEMENT_SET_NO": 999, "REV_AT_EPOCH": 4076, "BSTAR": 0, "MEAN_MOTION_DOT": -1.57e-06, "MEAN_MOTION_DDOT": 0}, "tle": {"line1": "1 40269U 14061A   25340.87118132 -.00000157  00000+0  00000+0 0  9990", "line2": "2 40269   6.0260  92.7398 0017814   2.5775  17.1506  1.00268670 40769"}}, "geometry": {"type": "Point", "coordinates": [139.3032855612498, 4.400773943344145]}}, {"type": "Feature", "properties": {"norad_id": 40294, "name": "GPS BIIF-8  (PRN 03)", "group": "gnss", "lat": -17.55115259973971, "lon": 26.433554830201267, "alt_km": 20184.761245267866, "timestamp": "2025-12-07T22:37:43.321642+00:00", "meta": {"OBJECT_NAME": "GPS BIIF-8  (PRN 03)", "OBJECT_ID": "2014-068A", "EPOCH": "2025-12-05T23:27:53.798400", "MEAN_MOTION": 2.00564264, "ECCENTRICITY": 0.00608121, "INCLINATION": 56.8528, "RA_OF_ASC_NODE": 38.4077, "ARG_OF_PERICENTER": 69.3337, "MEAN_ANOMALY": 291.3749, "EPHEMERIS_TYPE": 0, "CLASSIFICATION_TYPE": "U", "NORAD_CAT_ID": 40294, "ELEMENT_SET_NO": 999, "REV_AT_EPOCH": 8133, "BSTAR": 0, "MEAN_MOTION_DOT": -6.8e-07, "MEAN_MOTION_DDOT": 0}, "tle": {"line1": "1 40294U 14068A   25339.97770600 -.00000068  00000+0  00000+0 0  9999", "line2": "2 40294  56.8528  38.4077 0060812  69.3337 291.3749  2.00564264 81331"}}, "geometry": {"type": "Point", "coordinates": [26.433554830201267, -17.55115259973971]}}]}